[{"OBJECT_NAME":"STARLINK-30436","OBJECT_ID":"2023-144S","EPOCH":"2026-03-09T16:00:03.000096","MEAN_MOTION":15.27577698,"ECCENTRICITY":0.00015784,"INCLINATION":43.0005,"RA_OF_ASC_NODE":285.1072,"ARG_OF_PERICENTER":260.0887,"MEAN_ANOMALY":201.0081,"EPHEMERIS_TYPE":0,"CLASSIFICATION_TYPE":"U","NORAD_CAT_ID":57880,"ELEMENT_SET_NO":999,"REV_AT_EPOCH":574,"BSTAR":0.0001270346,"MEAN_MOTION_DOT":3.235e-5,"MEAN_MOTION_DDOT":0},{"OBJECT_NAME":"TIANMU-1 11","OBJECT_ID":"2023-205A","EPOCH":"2026-03-10T00:04:04.804896","MEAN_MOTION":15.25886825,"ECCENTRICITY":0.00089558,"INCLINATION":97.3549,"RA_OF_ASC_NODE":92.1484,"ARG_OF_PERICENTER":7.2987,"MEAN_ANOMALY":352.838,"EPHEMERIS_TYPE":0,"CLASSIFICATION_TYPE":"U","NORAD_CAT_ID":58645,"ELEMENT_SET_NO":999,"REV_AT_EPOCH":12239,"BSTAR":0.00031315232,"MEAN_MOTION_DOT":7.963e-5,"MEAN_MOTION_DDOT":0}]
